{
    "links": {
        "self": "http://www.neowsapp.com/rest/v1/neo/3555767?api_key=iIulBulltgU6a56xZRHN4H3l9WmuAYTsLGpBGhQ2"
    },
    "id": "3555767",
    "neo_reference_id": "3555767",
    "name": "(2011 BE24)",
    "designation": "2011 BE24",
    "nasa_jpl_url": "http://ssd.jpl.nasa.gov/sbdb.cgi?sstr=3555767",
    "absolute_magnitude_h": 25.5,
    "estimated_diameter": {
        "kilometers": {
            "estimated_diameter_min": 0.0211132445,
            "estimated_diameter_max": 0.0472106499
        },
        "meters": {
            "estimated_diameter_min": 21.113244479,
            "estimated_diameter_max": 47.2106498806
        },
        "miles": {
            "estimated_diameter_min": 0.0131191578,
            "estimated_diameter_max": 0.0293353287
        },
        "feet": {
            "estimated_diameter_min": 69.2691770164,
            "estimated_diameter_max": 154.8905885541
        }
    },
    "is_potentially_hazardous_asteroid": false,
    "close_approach_data": [
        {
            "close_approach_date": "2011-02-03",
            "close_approach_date_full": "2011-Feb-03 21:09",
            "epoch_date_close_approach": 1296767340000,
            "relative_velocity": {
                "kilometers_per_second": "8.572595471",
                "kilometers_per_hour": "30861.3436955288",
                "miles_per_hour": "19176.0388090356"
            },
            "miss_distance": {
                "astronomical": "0.023880975",
                "lunar": "9.289699275",
                "kilometers": "3572542.99352325",
                "miles": "2219875.27919085"
            },
            "orbiting_body": "Earth"
        },
        {
            "close_approach_date": "2068-12-29",
            "close_approach_date_full": "2068-Dec-29 23:34",
            "epoch_date_close_approach": 3124049640000,
            "relative_velocity": {
                "kilometers_per_second": "22.4971911505",
                "kilometers_per_hour": "80989.8881416524",
                "miles_per_hour": "50323.9668844617"
            },
            "miss_distance": {
                "astronomical": "0.4731980717",
                "lunar": "184.0740498913",
                "kilometers": "70789423.614427279",
                "miles": "43986508.1525192902"
            },
            "orbiting_body": "Earth"
        },
        {
            "close_approach_date": "2078-05-04",
            "close_approach_date_full": "2078-May-04 20:16",
            "epoch_date_close_approach": 3418920960000,
            "relative_velocity": {
                "kilometers_per_second": "21.1909843767",
                "kilometers_per_hour": "76287.5437560876",
                "miles_per_hour": "47402.1129522201"
            },
            "miss_distance": {
                "astronomical": "0.4395473921",
                "lunar": "170.9839355269",
                "kilometers": "65755353.622214827",
                "miles": "40858482.1078535326"
            },
            "orbiting_body": "Earth"
        },
        {
            "close_approach_date": "2078-07-07",
            "close_approach_date_full": "2078-Jul-07 13:58",
            "epoch_date_close_approach": 3424427880000,
            "relative_velocity": {
                "kilometers_per_second": "16.7679215346",
                "kilometers_per_hour": "60364.5175246421",
                "miles_per_hour": "37508.1636807977"
            },
            "miss_distance": {
                "astronomical": "0.0964596587",
                "lunar": "37.5228072343",
                "kilometers": "14430159.482446969",
                "miles": "8966485.3209434122"
            },
            "orbiting_body": "Mars"
        }
    ],
    "orbital_data": {
        "orbit_id": "6",
        "orbit_determination_date": "2017-04-06 08:54:49",
        "first_observation_date": "2011-01-28",
        "last_observation_date": "2011-01-29",
        "data_arc_in_days": 1,
        "observations_used": 25,
        "orbit_uncertainty": "8",
        "minimum_orbit_intersection": ".0129084",
        "jupiter_tisserand_invariant": "3.546",
        "epoch_osculation": "2455590.5",
        "eccentricity": ".5389412707681768",
        "semi_major_axis": "2.102417656684021",
        "inclination": ".9244977371684275",
        "ascending_node_longitude": "55.23759735672252",
        "orbital_period": "1113.465895990986",
        "perihelion_distance": ".9693380131052822",
        "perihelion_argument": "103.6557078185166",
        "aphelion_distance": "3.235497300262759",
        "perihelion_time": "2455615.211307935117",
        "mean_anomaly": "352.0104684942105",
        "mean_motion": ".323314796884371",
        "equinox": "J2000",
        "orbit_class": {
            "orbit_class_type": "APO",
            "orbit_class_description": "Near-Earth asteroid orbits which cross the Earth’s orbit similar to that of 1862 Apollo",
            "orbit_class_range": "a (semi-major axis) > 1.0 AU; q (perihelion) < 1.017 AU"
        }
    },
    "is_sentry_object": false
}